ONEWEB-0474             
1 51654U 22012AJ  23324.43738885 -.00000538  00000+0 -15787-2 0  9995
2 51654  87.9002 222.9009 0001406  62.4378 297.6892 13.10372339 87510
ONEWEB-0475             
1 51655U 22012AK  23323.90364882 -.00000014  00000+0 -70320-4 0  9994
2 51655  87.9234 192.7896 0001463  60.0151 300.1125 13.17649967 89862
ONEWEB-0490             
1 54113U 22138A   23324.00635201  .00000017  00000+0  97905-5 0  9993
2 54113  87.9174 132.1118 0001392  90.7288 269.4005 13.19725550 53695
ONEWEB-0492             
1 54114U 22138B   23323.87997843  .00000036  00000+0  58774-4 0  9992
2 54114  87.9168 132.1319 0001153  90.1728 269.9537 13.19726820 52819
ONEWEB-0495             
1 54115U 22138C   23324.16115380  .00000028  00000+0  36578-4 0  9993
2 54115  87.9173 132.0876 0001141  76.3634 283.7626 13.19722768 53701
ONEWEB-0497             
1 54116U 22138D   23323.87050615 -.00000038  00000+0 -12673-3 0  9992
2 54116  87.9172 132.1393 0001365  89.7301 270.3988 13.19726556 52782
ONEWEB-0499             
1 54117U 22138E   23324.38385738  .00000085  00000+0  17986-3 0  9999
2 54117  87.9171 132.0331 0001791  71.8820 288.2507 13.19724702 53736
ONEWEB-0500             
1 54118U 22138F   23324.00791691  .00000036  00000+0  57734-4 0  9990
2 54118  87.9177 132.1064 0001427  93.1576 266.9720 13.19727441 53696
